{
  "links" : {
    "next" : "https://api.nasa.gov/neo/rest/v1/feed?start_date=2002-06-09&end_date=2002-06-09&detailed=true&api_key=t0TVs3DtDT2H8Oy2Zy8m2eVrNsAVKAexjcZXUckd",
    "prev" : "https://api.nasa.gov/neo/rest/v1/feed?start_date=2002-06-07&end_date=2002-06-07&detailed=true&api_key=t0TVs3DtDT2H8Oy2Zy8m2eVrNsAVKAexjcZXUckd",
    "self" : "https://api.nasa.gov/neo/rest/v1/feed?start_date=2002-06-08&end_date=2002-06-08&detailed=true&api_key=t0TVs3DtDT2H8Oy2Zy8m2eVrNsAVKAexjcZXUckd"
  },
  "element_count" : 5,
  "near_earth_objects" : {
    "2002-06-08" : [ {
      "links" : {
        "self" : "https://api.nasa.gov/neo/rest/v1/neo/2481025?api_key=t0TVs3DtDT2H8Oy2Zy8m2eVrNsAVKAexjcZXUckd"
      },
      "neo_reference_id" : "2481025",
      "name" : "481025 (2004 VA1)",
      "nasa_jpl_url" : "http://ssd.jpl.nasa.gov/sbdb.cgi?sstr=2481025",
      "absolute_magnitude_h" : 20.6,
      "estimated_diameter" : {
        "kilometers" : {
          "estimated_diameter_min" : 0.2016299194,
          "estimated_diameter_max" : 0.4508582062
        },
        "meters" : {
          "estimated_diameter_min" : 201.6299194428,
          "estimated_diameter_max" : 450.8582061718
        },
        "miles" : {
          "estimated_diameter_min" : 0.1252869847,
          "estimated_diameter_max" : 0.2801502144
        },
        "feet" : {
          "estimated_diameter_min" : 661.5155049046,
          "estimated_diameter_max" : 1479.1936371367
        }
      },
      "is_potentially_hazardous_asteroid" : false,
      "close_approach_data" : [ {
        "close_approach_date" : "2002-06-08",
        "epoch_date_close_approach" : 1023519600000,
        "relative_velocity" : {
          "kilometers_per_second" : "23.3945912281",
          "kilometers_per_hour" : "84220.5284210131",
          "miles_per_hour" : "52331.3611180456"
        },
        "miss_distance" : {
          "astronomical" : "0.4965234111",
          "lunar" : "193.1476135254",
          "kilometers" : "74278848",
          "miles" : "46154736"
        },
        "orbiting_body" : "Earth"
      } ],
      "orbital_data" : {
        "orbit_id" : "23",
        "orbit_determination_date" : "2017-04-06 09:18:50",
        "orbit_uncertainty" : "1",
        "minimum_orbit_intersection" : ".172611",
        "jupiter_tisserand_invariant" : "5.695",
        "epoch_osculation" : "2458000.5",
        "eccentricity" : ".5122883739162025",
        "semi_major_axis" : "1.051392448212341",
        "inclination" : "14.90253720592457",
        "ascending_node_longitude" : "250.7546319272581",
        "orbital_period" : "393.7727936911843",
        "perihelion_distance" : ".5127763205698658",
        "perihelion_argument" : "20.86173869139343",
        "aphelion_distance" : "1.590008575854817",
        "perihelion_time" : "2457952.291592100274",
        "mean_anomaly" : "44.07370727981781",
        "mean_motion" : ".9142327905018481",
        "equinox" : "J2000"
      }
    }, {
      "links" : {
        "self" : "https://api.nasa.gov/neo/rest/v1/neo/3762440?api_key=t0TVs3DtDT2H8Oy2Zy8m2eVrNsAVKAexjcZXUckd"
      },
      "neo_reference_id" : "3762440",
      "name" : "(2016 UW80)",
      "nasa_jpl_url" : "http://ssd.jpl.nasa.gov/sbdb.cgi?sstr=3762440",
      "absolute_magnitude_h" : 24.2,
      "estimated_diameter" : {
        "kilometers" : {
          "estimated_diameter_min" : 0.0384197891,
          "estimated_diameter_max" : 0.0859092601
        },
        "meters" : {
          "estimated_diameter_min" : 38.4197891064,
          "estimated_diameter_max" : 85.9092601232
        },
        "miles" : {
          "estimated_diameter_min" : 0.0238729428,
          "estimated_diameter_max" : 0.0533815229
        },
        "feet" : {
          "estimated_diameter_min" : 126.0491808919,
          "estimated_diameter_max" : 281.8545369825
        }
      },
      "is_potentially_hazardous_asteroid" : false,
      "close_approach_data" : [ {
        "close_approach_date" : "2002-06-08",
        "epoch_date_close_approach" : 1023519600000,
        "relative_velocity" : {
          "kilometers_per_second" : "5.9589791024",
          "kilometers_per_hour" : "21452.3247687976",
          "miles_per_hour" : "13329.6403542565"
        },
        "miss_distance" : {
          "astronomical" : "0.3452233602",
          "lunar" : "134.291885376",
          "kilometers" : "51644680",
          "miles" : "32090518"
        },
        "orbiting_body" : "Earth"
      } ],
      "orbital_data" : {
        "orbit_id" : "17",
        "orbit_determination_date" : "2017-05-05 06:17:57",
        "orbit_uncertainty" : "3",
        "minimum_orbit_intersection" : ".057864",
        "jupiter_tisserand_invariant" : "5.378",
        "epoch_osculation" : "2458000.5",
        "eccentricity" : ".1691399110748758",
        "semi_major_axis" : "1.164185069990578",
        "inclination" : "12.98883647925563",
        "ascending_node_longitude" : "37.43198629143669",
        "orbital_period" : "458.8085103820005",
        "perihelion_distance" : ".9672749107776731",
        "perihelion_argument" : "108.47174645",
        "aphelion_distance" : "1.361095229203482",
        "perihelion_time" : "2457805.723359428848",
        "mean_anomaly" : "152.8297514517192",
        "mean_motion" : ".7846410688857247",
        "equinox" : "J2000"
      }
    } ]
  }
}